P/2011 S1 (Gibbs),e,2.6888,218.8979,192.5938,8.585762,0.0391774,0.20177885,131.0966,10/18.0/2023,2000,g  8.0,4.0
# From MPC 79022
P/2011 UA134 (Spacewatch-PANSTARRS),e,10.4404,40.4032,32.4109,5.610493,0.0741656,0.63005967,323.8203,10/18.0/2023,2000,g 17.5,4.0
# From MPC 77406
P/2011 V1 (Boattini),e,7.3727,46.8130,269.3468,3.858324,0.1300487,0.54956796,239.5750,10/18.0/2023,2000,g 15.5,4.0
# From MPC 82718
P/2011 W1 (PANSTARRS),e,3.7176,161.8308,282.8175,4.669600,0.0976753,0.28845472,60.2245,10/18.0/2023,2000,g 11.5,4.0
# From MPC 79342
P/2011 Y2 (Boattini),e,6.3832,309.3445,131.9694,6.235331,0.0633016,0.71085986,268.5104,10/18.0/2023,2000,g 15.0,4.0
# From MPEC 2022-K19
P/2012 B1 (PANSTARRS),e,7.6099,36.2163,162.2080,6.533713,0.0590152,0.40936389,221.8867,10/18.0/2023,2000,g  9.0,4.0
# From MPC 78590
P/2012 C3 (PANSTARRS),e,9.0920,135.3677,344.9542,9.748681,0.0323806,0.63011148,359.9758,10/06.0/2011,2000,g 13.0,4.0
# From MPC 84931
P/2012 F2 (PANSTARRS),e,14.6988,226.9595,33.2804,6.340139,0.0617385,0.54036923,237.6884,10/18.0/2023,2000,g 12.0,4.0
# From MPEC 2022-ED3
P/2012 G1 (PANSTARRS),e,12.1692,283.2603,266.0958,4.164733,0.1159640,0.32902713,129.1305,10/18.0/2023,2000,g 15.0,4.0
# From MPC 80898
P/2012 K3 (Gibbs),e,13.1871,125.8186,172.2264,3.629738,0.1425250,0.42205426,217.2000,10/18.0/2023,2000,g 15.0,4.0
# From MPC 88326
P/2012 NJ (La Sagra),e,84.5078,315.6187,338.4103,8.467645,0.0400000,0.84646027,165.6733,10/18.0/2023,2000,g 14.5,4.0
# From MPC 81470
P/2012 O1 (McNaught),e,7.4278,91.9580,238.3028,3.542112,0.1478464,0.59396315,249.8682,10/18.0/2023,2000,g 17.5,4.0
# From MPC 80899
P/2012 O2 (McNaught),e,24.4656,120.6812,183.4674,3.627309,0.1426682,0.53156257,232.1062,10/18.0/2023,2000,g 17.0,4.0
# From MPC 82320
P/2012 T2 (PANSTARRS),e,12.5699,73.8803,310.8309,5.724236,0.0719661,0.16252710,274.5359,10/18.0/2023,2000,g 10.0,4.0
# From MPC 80900
P/2012 T3 (PANSTARRS),e,9.5584,114.3648,195.5274,6.152380,0.0645861,0.61621240,270.1343,10/18.0/2023,2000,g 15.0,4.0
# From MPC 82720
P/2012 U2 (PANSTARRS),e,10.7637,185.3369,228.2925,7.128876,0.0517812,0.50047862,206.2963,10/18.0/2023,2000,g 12.5,4.0
# From MPC 84024
P/2012 US27 (Siding Spring),e,39.3666,49.2303,0.8351,5.163270,0.0840073,0.64842326,328.9870,10/18.0/2023,2000,g 13.5,4.0
# From MPC 82721
P/2012 WA34 (Lemmon-PANSTARRS),e,6.0790,93.7406,356.4778,4.677592,0.0974250,0.34341133,9.8434,10/18.0/2023,2000,g 13.5,4.0
# From MPC 82721
P/2013 AL76 (Catalina),e,44.8697,146.0064,27.0147,6.499226,0.0594856,0.68667380,236.4659,10/18.0/2023,2000,g 16.0,4.0
# From MPC 91612
P/2013 G1 (Kowalski),e,5.4570,221.3120,51.5125,6.901154,0.0543653,0.51044293,195.9422,10/18.0/2023,2000,g 11.0,4.0
# From MPC 84025
P/2013 G4 (PANSTARRS),e,5.9171,339.5992,214.6052,4.435937,0.1054936,0.40903468,51.2617,10/18.0/2023,2000,g 15.0,4.0
# From MPC 91613
P/2013 J2 (McNaught),e,15.5106,289.3544,37.8633,6.224296,0.0634700,0.65684437,234.8168,10/18.0/2023,2000,g 13.0,4.0
# From MPC 86229
P/2013 N3 (PANSTARRS),e,2.1709,17.5264,323.9541,7.398421,0.0489774,0.59244109,172.8366,10/18.0/2023,2000,g 13.0,4.0
# From MPC 85834
P/2013 N5 (PANSTARRS),e,23.4527,187.1737,176.9481,6.797018,0.0556194,0.73235642,208.6907,10/18.0/2023,2000,g 17.0,4.0
# From MPC 85834
P/2013 P1 (PANSTARRS),e,18.7106,160.6242,138.2495,8.586911,0.0391696,0.60371612,152.2569,10/18.0/2023,2000,g 12.0,4.0
# From MPEC 2022-V95
P/2013 R3 (Catalina-PANSTARRS),e,0.8650,342.0425,11.2840,3.031023,0.1867756,0.27557024,331.1370,10/18.0/2023,2000,g 14.0,4.0
# From unp
P/2013 R3-A (Catalina-PANSTARRS),e,0.8642,341.9974,11.3628,3.030779,0.1867982,0.27550119,331.2031,10/18.0/2023,2000,g  9.0,4.0
# From MPEC 2015-M77
P/2013 R3-B (Catalina-PANSTARRS),e,0.8654,342.0533,11.2976,3.030998,0.1867780,0.27554632,331.1321,10/18.0/2023,2000,g  9.0,4.0
# From MPC 85835
P/2013 T1 (PANSTARRS),e,24.2929,10.1083,346.1664,5.855395,0.0695616,0.62416932,258.7864,10/18.0/2023,2000,g 16.5,4.0
# From MPC 86643
P/2013 T2 (Schwartz),e,9.4537,0.8209,345.5813,3.492427,0.1510126,0.50077397,213.9824,10/18.0/2023,2000,g 16.0,4.0
# From MPC 91613
P/2013 W1 (PANSTARRS),e,4.6974,117.8296,1.2219,3.486577,0.1513928,0.59323862,171.4649,10/18.0/2023,2000,g 17.5,4.0
# From MPC101095
P/2013 YG46 (Spacewatch),e,7.8583,48.8442,242.6636,3.277721,0.1660910,0.45519322,47.2552,10/18.0/2023,2000,g 10.0,4.0
# From MPC 89728
P/2014 A2 (Hill),e,24.5532,106.6461,356.1411,5.925984,0.0683224,0.64614918,250.0276,10/18.0/2023,2000,g 15.0,4.0
# From MPC 92981
P/2014 A3 (PANSTARRS),e,13.7165,230.0761,214.1083,4.606967,0.0996739,0.24638573,17.7630,10/18.0/2023,2000,g 12.0,4.0
# From MPC102095
P/2014 C1 (TOTAS),e,2.6919,167.8837,23.9924,3.029295,0.1869355,0.45184587,307.1198,10/18.0/2023,2000,g 15.5,4.0
# From MPEC 2022-WD2
C/2014 F3 (Sheppard-Trujillo),e,6.5240,326.1058,4.8942,14.46694,0.0179118,0.60478221,15.6192,10/18.0/2023,2000,g  6.0,4.0
# From MPC 98560
P/2014 L2 (NEOWISE),e,5.1979,149.3620,182.7146,6.306972,0.0622261,0.64738101,210.0264,10/18.0/2023,2000,g 12.0,4.0
# From MPC 90769
P/2014 L3 (Hill),e,6.2650,115.5184,178.6971,8.181140,0.0421195,0.77201135,143.1582,10/18.0/2023,2000,g 16.0,4.0
# From MPC 91614
P/2014 M4 (PANSTARRS),e,3.3442,263.2120,148.0504,5.866115,0.0693710,0.59602143,222.7954,10/18.0/2023,2000,g 15.0,4.0
# From MPEC 2022-K19
P/2014 MG4 (Spacewatch-PANSTARRS),e,9.3648,311.7106,298.9889,5.013866,0.0877900,0.25875503,331.4505,10/18.0/2023,2000,g  9.5,4.0
# From MPC 98560
P/2014 O3 (PANSTARRS),e,7.7919,87.6327,204.7978,7.581409,0.0472149,0.38351745,164.0105,10/18.0/2023,2000,g 10.5,4.0
# From MPEC 2023-TM6
C/2014 OG392 (PANSTARRS),e,9.0329,145.8145,254.6764,12.25976,0.0229605,0.18652071,15.3782,10/18.0/2023,2000,g  6.0,4.0
# From MPC 91616
P/2014 U4 (PANSTARRS),e,6.4274,11.9210,347.8430,3.510088,0.1498743,0.46457645,146.3345,10/18.0/2023,2000,g 18.0,4.0
# From MPEC 2023-TM6
C/2014 UN271 (Bernardinelli-Bernstein),h,01/19.3849/2031,95.4325,189.9048,326.1627,1.002460,10.952925,2000,2.5,3.2
# From MPC 95211
P/2014 V1 (PANSTARRS),e,22.5194,166.2157,177.6588,5.479389,0.0768433,0.53414514,244.6917,10/18.0/2023,2000,g 14.0,4.0
# From MPC105542
P/2014 W4 (PANSTARRS),e,15.2873,33.3467,67.6199,6.584690,0.0583312,0.35412105,166.0108,10/18.0/2023,2000,g 11.0,4.0
# From MPC 94281
P/2014 X1 (Elenin),e,26.0516,61.5532,33.8900,6.202519,0.0638046,0.71019628,204.8160,10/18.0/2023,2000,g 15.0,4.0
# From MPC 92275
P/2015 A3 (PANSTARRS),e,172.5462,277.3996,249.5572,7.817431,0.0450929,0.85026321,142.6464,10/18.0/2023,2000,g 20.0,4.0
# From MPC 99270
P/2015 B1 (PANSTARRS),e,18.0646,352.8920,188.8007,9.484690,0.0337419,0.36627739,99.9776,10/18.0/2023,2000,g  8.5,4.0
# From MPC109141
P/2015 B4 (Lemmon-PANSTARRS),e,1.7656,266.0972,227.1599,8.511160,0.0396936,0.56126554,126.1595,10/18.0/2023,2000,g 11.0,4.0
# From MPC101096
P/2015 C1 (TOTAS-Gibbs),e,13.9363,348.7868,178.0343,6.568932,0.0585412,0.56222217,181.4928,10/18.0/2023,2000,g 12.5,4.0
# From MPC109141
P/2015 D5 (Kowalski),e,20.5465,74.0827,39.6052,8.948549,0.0368193,0.49074361,128.2931,10/18.0/2023,2000,g  9.0,4.0
# From MPC 96866
P/2015 D6 (Lemmon-PANSTARRS),e,20.2157,45.7819,124.9603,7.131366,0.0517541,0.36183396,157.1817,10/18.0/2023,2000,g 10.5,4.0
# From MPEC 2021-P47
P/2015 HG16 (PANSTARRS),e,18.9906,57.0711,46.8390,4.802840,0.0936390,0.35046141,325.9102,10/18.0/2023,2000,g 12.5,4.0
# From MPC 95213
P/2015 K5 (PANSTARRS),e,39.9385,134.2523,106.2503,6.727532,0.0564833,0.55149298,173.0902,10/18.0/2023,2000,g 13.5,4.0
# From MPC107684
P/2015 M2 (PANSTARRS),e,3.9684,86.7041,225.9563,7.248760,0.0505020,0.17891689,149.4179,10/18.0/2023,2000,g  8.5,4.0
# From MPC 99819
P/2015 P4 (PANSTARRS),e,8.7195,104.7294,280.6552,6.046609,0.0662882,0.58577650,187.1061,10/18.0/2023,2000,g 14.0,4.0
# From MPEC 2022-K19
P/2015 PD229 (Cameron-ISON),e,2.0236,342.7237,352.7113,7.198136,0.0510357,0.32678350,152.3025,10/18.0/2023,2000,g 11.5,2.0
# From MPC 96867
P/2015 Q2 (Pimentel),e,146.5598,228.5613,244.6796,7.352914,0.0494328,0.75104404,146.3488,10/18.0/2023,2000,g 15.5,4.0
# From MPC 98562
P/2015 R1 (PANSTARRS),e,22.6888,48.3744,300.5508,5.881318,0.0691022,0.63395530,209.4009,10/18.0/2023,2000,g 14.0,4.0
# From MPC 95734
P/2015 R2 (PANSTARRS),e,15.4819,168.6165,149.8552,4.483870,0.1038065,0.45252512,315.9182,10/18.0/2023,2000,g 14.5,4.0
# From MPC102953
P/2015 TO19 (Lemmon-PANSTARRS),e,6.5032,321.6652,89.2165,4.549918,0.1015544,0.35965209,282.0967,10/18.0/2023,2000,g 14.0,4.0
# From MPC110080
P/2015 TP200 (LINEAR),e,8.7833,6.9919,82.4547,7.262576,0.0503579,0.53684896,128.0782,10/18.0/2023,2000,g 11.0,4.0
# From MPC101098
P/2015 W2 (Catalina),e,11.6131,294.1660,117.5585,7.290712,0.0500667,0.63558561,146.8772,10/18.0/2023,2000,g 13.0,4.0
# From MPEC 2023-J29
P/2015 X3 (PANSTARRS),e,24.4180,77.2569,306.8904,5.001885,0.0881056,0.44014253,262.9921,10/18.0/2023,2000,g 15.0,4.0
# From MPC115881
P/2015 X6 (PANSTARRS),e,4.5652,106.9376,329.8057,2.751559,0.2159414,0.17348447,236.5210,10/18.0/2023,2000,g 16.0,4.0
# From MPC100282
P/2016 A2 (Christensen),e,26.4052,291.5952,141.3080,4.753791,0.0950920,0.27117326,290.0224,10/18.0/2023,2000,g 11.5,4.0
# From MPEC 2022-OB6
P/2016 A3 (PANSTARRS),e,8.5129,187.1977,340.8470,7.874885,0.0446003,0.38617743,105.5620,10/18.0/2023,2000,g 10.0,4.0
# From MPC102098
P/2016 A7 (PANSTARRS),e,16.6076,221.4607,352.5011,5.036064,0.0872102,0.56509218,244.2900,10/18.0/2023,2000,g 16.0,4.0
# From MPEC 2021-P47
P/2016 G1 (PANSTARRS),e,10.9713,204.0159,111.1438,2.583491,0.2373525,0.21038884,223.2447,10/18.0/2023,2000,g 14.0,4.0
# From MPEC 2017-D91
P/2016 J1-A (PANSTARRS),e,14.3269,199.9161,47.3577,3.177632,0.1739998,0.22741860,104.9055,10/18.0/2023,2000,g 16.5,4.0
# From MPEC 2017-A77
P/2016 J1-B (PANSTARRS),e,14.3297,199.9213,47.2494,3.177272,0.1740293,0.22726589,105.0606,10/18.0/2023,2000,g 17.0,4.0
# From MPC102099
P/2016 P1 (PANSTARRS),e,24.3923,319.5859,270.4961,3.201149,0.1720859,0.28871068,147.7907,10/18.0/2023,2000,g 15.0,4.0
# From MPEC 2023-R20
